HERMES-2                
1 63243U 25052AK  26068.92847372  .00009456  00000+0  34839-3 0  9999
2 63243  97.4004 324.4926 0006340  99.4160 260.7796 15.28021069 54859
STARLINK-35511          
1 66344U 25253AB  26068.45995577  .00032209  00000+0  11745-2 0  9998
2 66344  43.0017 213.4255 0001451 243.6652 116.4050 15.27591717 20218
